[
    {
        "Altitude(m)": 566273.063723972,
        "Argument of Periapsis(deg)": -0.022603160782972403,
        "Eccentricity": 0.0,
        "Inclination(deg)": 97.0,
        "Latitude(deg)": 1.487767489914962,
        "Longitude(deg)": 77.83687087569949,
        "Mean Anomaly(deg)": 178.4107432691875,
        "RAAN(deg)": 0.005947053618510769,
        "Satellite Name": "Starlink Shell 3 1607",
        "Satellite Number": 1607,
        "Semi-Major Axis(m)": 6938478.169268562,
        "Time(s)": 570
    },
    {
        "Altitude(m)": 566345.9969651512,
        "Argument of Periapsis(deg)": -0.02299970746337543,
        "Eccentricity": 0.0,
        "Inclination(deg)": 97.0,
        "Latitude(deg)": 0.863352622655368,
        "Longitude(deg)": 77.7189122592664,
        "Mean Anomaly(deg)": 179.03621946689253,
        "RAAN(deg)": 0.00605138789251973,
        "Satellite Name": "Starlink Shell 3 1607",
        "Satellite Number": 1607,
        "Semi-Major Axis(m)": 6938478.169268562,
        "Time(s)": 580
    },
    {
        "Altitude(m)": 566423.236261227,
        "Argument of Periapsis(deg)": -0.023396254143778456,
        "Eccentricity": 0.0,
        "Inclination(deg)": 97.0,
        "Latitude(deg)": 0.23894827464944457,
        "Longitude(deg)": 77.60098032629992,
        "Mean Anomaly(deg)": 179.66169566459757,
        "RAAN(deg)": 0.0061557221665286925,
        "Satellite Name": "Starlink Shell 3 1607",
        "Satellite Number": 1607,
        "Semi-Major Axis(m)": 6938478.169268562,
        "Time(s)": 590
    },
    {
        "Altitude(m)": 566504.7735017168,
        "Argument of Periapsis(deg)": -0.023792800824181483,
        "Eccentricity": 0.0,
        "Inclination(deg)": 97.0,
        "Latitude(deg)": -0.3854425555872618,
        "Longitude(deg)": 77.48305701816822,
        "Mean Anomaly(deg)": 180.28717186230264,
        "RAAN(deg)": 0.0062600564405376515,
        "Satellite Name": "Starlink Shell 3 1607",
        "Satellite Number": 1607,
        "Semi-Major Axis(m)": 6938478.169268562,
        "Time(s)": 600
    },
    {
        "Altitude(m)": 566590.5984963335,
        "Argument of Periapsis(deg)": -0.024189347504584503,
        "Eccentricity": 0.0,
        "Inclination(deg)": 97.0,
        "Latitude(deg)": -1.009816871829224,
        "Longitude(deg)": 77.36512428490596,
        "Mean Anomaly(deg)": 180.91264806000768,
        "RAAN(deg)": 0.006364390714546612,
        "Satellite Name": "Starlink Shell 3 1607",
        "Satellite Number": 1607,
        "Semi-Major Axis(m)": 6938478.169268562,
        "Time(s)": 610
    },
    {
        "Altitude(m)": 566680.6989767893,
        "Argument of Periapsis(deg)": -0.02458589418498753,
        "Eccentricity": 0.0,
        "Inclination(deg)": 97.0,
        "Latitude(deg)": -1.6341716800712547,
        "Longitude(deg)": 77.2471645728539,
        "Mean Anomaly(deg)": 181.53812425771272,
        "RAAN(deg)": 0.0064687249885555746,
        "Satellite Name": "Starlink Shell 3 1607",
        "Satellite Number": 1607,
        "Semi-Major Axis(m)": 6938478.169268562,
        "Time(s)": 620
    },
    {
        "Altitude(m)": 566775.0605997037,
        "Argument of Periapsis(deg)": -0.024982440865390556,
        "Eccentricity": 0.0,
        "Inclination(deg)": 97.0,
        "Latitude(deg)": -2.258503988457964,
        "Longitude(deg)": 77.12915963131327,
        "Mean Anomaly(deg)": 182.16360045541776,
        "RAAN(deg)": 0.006573059262564535,
        "Satellite Name": "Starlink Shell 3 1607",
        "Satellite Number": 1607,
        "Semi-Major Axis(m)": 6938478.169268562,
        "Time(s)": 630
    },
    {
        "Altitude(m)": 566873.6669504992,
        "Argument of Periapsis(deg)": -0.025378987545793576,
        "Eccentricity": 0.0,
        "Inclination(deg)": 97.0,
        "Latitude(deg)": -2.8828108072070786,
        "Longitude(deg)": 77.01109184060772,
        "Mean Anomaly(deg)": 182.7890766531228,
        "RAAN(deg)": 0.006677393536573496,
        "Satellite Name": "Starlink Shell 3 1607",
        "Satellite Number": 1607,
        "Semi-Major Axis(m)": 6938478.169268562,
        "Time(s)": 640
    },
    {
        "Altitude(m)": 566976.4995484173,
        "Argument of Periapsis(deg)": -0.025775534226196602,
        "Eccentricity": 0.0,
        "Inclination(deg)": 97.0,
        "Latitude(deg)": -3.5070891485272324,
        "Longitude(deg)": 76.89294301860895,
        "Mean Anomaly(deg)": 183.41455285082787,
        "RAAN(deg)": 0.006781727810582457,
        "Satellite Name": "Starlink Shell 3 1607",
        "Satellite Number": 1607,
        "Semi-Major Axis(m)": 6938478.169268562,
        "Time(s)": 650
    },
    {
        "Altitude(m)": 567083.5378525519,
        "Argument of Periapsis(deg)": -0.026172080906599626,
        "Eccentricity": 0.0,
        "Inclination(deg)": 97.0,
        "Latitude(deg)": -4.131336026524821,
        "Longitude(deg)": 76.77469490811912,
        "Mean Anomaly(deg)": 184.04002904853292,
        "RAAN(deg)": 0.006886062084591417,
        "Satellite Name": "Starlink Shell 3 1607",
        "Satellite Number": 1607,
        "Semi-Major Axis(m)": 6938478.169268562,
        "Time(s)": 660
    },
    {
        "Altitude(m)": 567194.759268927,
        "Argument of Periapsis(deg)": -0.026568627587002652,
        "Eccentricity": 0.0,
        "Inclination(deg)": 97.0,
        "Latitude(deg)": -4.7555484570985636,
        "Longitude(deg)": 76.65632966410539,
        "Mean Anomaly(deg)": 184.66550524623796,
        "RAAN(deg)": 0.006990396358600378,
        "Satellite Name": "Starlink Shell 3 1607",
        "Satellite Number": 1607,
        "Semi-Major Axis(m)": 6938478.169268562,
        "Time(s)": 670
    },
    {
        "Altitude(m)": 567310.1391586281,
        "Argument of Periapsis(deg)": -0.02696517426740568,
        "Eccentricity": 0.0,
        "Inclination(deg)": 97.0,
        "Latitude(deg)": -5.379723457819864,
        "Longitude(deg)": 76.53782882788026,
        "Mean Anomaly(deg)": 185.290981443943,
        "RAAN(deg)": 0.00709473063260934,
        "Satellite Name": "Starlink Shell 3 1607",
        "Satellite Number": 1607,
        "Semi-Major Axis(m)": 6938478.169268562,
        "Time(s)": 680
    },
    {
        "Altitude(m)": 567429.6508469575,
        "Argument of Periapsis(deg)": -0.0273617209478087,
        "Eccentricity": 0.0,
        "Inclination(deg)": 97.0,
        "Latitude(deg)": -6.003858047794798,
        "Longitude(deg)": 76.41917381393861,
        "Mean Anomaly(deg)": 185.91645764164804,
        "RAAN(deg)": 0.007199064906618299,
        "Satellite Name": "Starlink Shell 3 1607",
        "Satellite Number": 1607,
        "Semi-Major Axis(m)": 6938478.169268562,
        "Time(s)": 690
    },
    {
        "Altitude(m)": 567553.2656336562,
        "Argument of Periapsis(deg)": -0.027758267628211725,
        "Eccentricity": 0.0,
        "Inclination(deg)": 97.0,
        "Latitude(deg)": -6.627949247505136,
        "Longitude(deg)": 76.30034639654355,
        "Mean Anomaly(deg)": 186.54193383935308,
        "RAAN(deg)": 0.00730339918062726,
        "Satellite Name": "Starlink Shell 3 1607",
        "Satellite Number": 1607,
        "Semi-Major Axis(m)": 6938478.169268562,
        "Time(s)": 700
    },
    {
        "Altitude(m)": 567680.9528041156,
        "Argument of Periapsis(deg)": -0.028154814308614752,
        "Eccentricity": 0.0,
        "Inclination(deg)": 97.0,
        "Latitude(deg)": -7.251994078627875,
        "Longitude(deg)": 76.18132768315095,
        "Mean Anomaly(deg)": 187.16741003705815,
        "RAAN(deg)": 0.0074077334546362224,
        "Satellite Name": "Starlink Shell 3 1607",
        "Satellite Number": 1607,
        "Semi-Major Axis(m)": 6938478.169268562,
        "Time(s)": 710
    },
    {
        "Altitude(m)": 567812.6796416139,
        "Argument of Periapsis(deg)": -0.02855136098901778,
        "Eccentricity": 0.0,
        "Inclination(deg)": 97.0,
        "Latitude(deg)": -7.875989563827129,
        "Longitude(deg)": 76.06209860038291,
        "Mean Anomaly(deg)": 187.79288623476313,
        "RAAN(deg)": 0.007512067728645183,
        "Satellite Name": "Starlink Shell 3 1607",
        "Satellite Number": 1607,
        "Semi-Major Axis(m)": 6938478.169268562,
        "Time(s)": 720
    },
    {
        "Altitude(m)": 567948.4114406054,
        "Argument of Periapsis(deg)": -0.028947907669420805,
        "Eccentricity": 0.0,
        "Inclination(deg)": 97.0,
        "Latitude(deg)": -8.499932726517502,
        "Longitude(deg)": 75.94264037963708,
        "Mean Anomaly(deg)": 188.4183624324682,
        "RAAN(deg)": 0.007616402002654144,
        "Satellite Name": "Starlink Shell 3 1607",
        "Satellite Number": 1607,
        "Semi-Major Axis(m)": 6938478.169268562,
        "Time(s)": 730
    },
    {
        "Altitude(m)": 568088.1115209482,
        "Argument of Periapsis(deg)": -0.029344454349823825,
        "Eccentricity": 0.0,
        "Inclination(deg)": 97.0,
        "Latitude(deg)": -9.123820590596168,
        "Longitude(deg)": 75.82293352942081,
        "Mean Anomaly(deg)": 189.04383863017324,
        "RAAN(deg)": 0.0077207362766631045,
        "Satellite Name": "Starlink Shell 3 1607",
        "Satellite Number": 1607,
        "Semi-Major Axis(m)": 6938478.169268562,
        "Time(s)": 740
    },
    {
        "Altitude(m)": 568231.7412431955,
        "Argument of Periapsis(deg)": -0.029741001030226845,
        "Eccentricity": 0.0,
        "Inclination(deg)": 97.0,
        "Latitude(deg)": -9.747650180139647,
        "Longitude(deg)": 75.70295832011406,
        "Mean Anomaly(deg)": 189.66931482787828,
        "RAAN(deg)": 0.007825070550672067,
        "Satellite Name": "Starlink Shell 3 1607",
        "Satellite Number": 1607,
        "Semi-Major Axis(m)": 6938478.169268562,
        "Time(s)": 750
    }
]